STARLINK-2022           
1 47643U 21012Z   24018.84931403  .00001950  00000+0  14979-3 0  9994
2 47643  53.0556 316.9523 0000801  92.6068 267.5012 15.06390500162572
